NORAD_CAT_ID,OBJECT_NAME,OBJECT_TYPE,EPOCH,MEAN_MOTION,ECCENTRICITY,INCLINATION,RA_OF_ASC_NODE,ARG_OF_PERICENTER,MEAN_ANOMALY,BSTAR,MEAN_MOTION_DOT,MEAN_MOTION_DDOT,TLE_LINE0,TLE_LINE1,TLE_LINE2,SEMIMAJOR_AXIS,PERIOD,APOGEE,PERIGEE,DECAYED
53032.0,STARLINK-4115,PAYLOAD,2024-02-23 13:57:21,15.08838111,0.0001475,53.217,189.0389,98.8643,261.2516,2.4424e-05,1.01e-06,0.0,0 STARLINK-4115,1 53032U 22076AY  24054.58150248  .00000101  00000-0  24424-4 0  9990,2 53032  53.2170 189.0389 0001475  98.8643 261.2516 15.08838111 90509,6917.886,95.438,540.772,538.731,0.0
53032.0,STARLINK-4115,PAYLOAD,2024-02-23 18:43:30,15.08841166,0.000145,53.2167,188.1456,100.3283,259.7873,4.9362e-05,4.98e-06,0.0,0 STARLINK-4115,1 53032U 22076AY  24054.78021944  .00000498  00000-0  49362-4 0  9999,2 53032  53.2167 188.1456 0001450 100.3283 259.7873 15.08841166 90537,6917.877,95.437,540.745,538.739,0.0
53032.0,STARLINK-4115,PAYLOAD,2024-02-24 15:23:32,15.08838874,0.0001404,53.2179,184.2837,90.3518,269.7635,4.4153e-05,4.15e-06,0.0,0 STARLINK-4115,1 53032U 22076AY  24055.64134398  .00000415  00000-0  44153-4 0  9995,2 53032  53.2179 184.2837 0001404  90.3518 269.7635 15.08838874 90661,6917.884,95.438,540.72,538.778,0.0
53032.0,STARLINK-4115,PAYLOAD,2024-02-25 13:38:55,15.08849102,0.0001358,53.217,180.1204,91.6152,268.4995,0.00011113,1.482e-05,0.0,0 STARLINK-4115,1 53032U 22076AY  24056.56869671  .00001482  00000-0  11113-3 0  9990,2 53032  53.2170 180.1204 0001358  91.6152 268.4995 15.08849102 91270,6917.853,95.437,540.657,538.778,0.0
53032.0,STARLINK-4115,PAYLOAD,2024-02-25 15:14:18,15.08852961,0.0001318,53.217,179.8234,93.3466,266.7677,0.00014138,1.964e-05,0.0,0 STARLINK-4115,1 53032U 22076AY  24056.63493338  .00001964  00000-0  14138-3 0  9996,2 53032  53.2170 179.8234 0001318  93.3466 266.7677 15.08852961 90815,6917.841,95.437,540.618,538.794,0.0
53032.0,STARLINK-4115,PAYLOAD,2024-02-26 00:46:37,15.08846137,0.000108,53.2155,178.0389,94.583,265.5285,7.591e-05,9.21e-06,0.0,0 STARLINK-4115,1 53032U 22076AY  24057.03237874  .00000921  00000-0  75910-4 0  9990,2 53032  53.2155 178.0389 0001080  94.5830 265.5285 15.08846137 91343,6917.862,95.437,540.474,538.98,0.0
53032.0,STARLINK-4115,PAYLOAD,2024-02-26 11:54:20,15.08837789,0.0001391,53.2171,175.9594,94.4482,265.6669,2.6926e-05,1.41e-06,0.0,0 STARLINK-4115,1 53032U 22076AY  24057.49606584  .00000141  00000-0  26926-4 0  9995,2 53032  53.2171 175.9594 0001391  94.4482 265.6669 15.08837789 91410,6917.887,95.438,540.714,538.79,0.0
53032.0,STARLINK-4115,PAYLOAD,2024-02-26 13:29:43,15.08838198,0.0001394,53.2171,175.6618,92.8627,267.2525,2.8066e-05,1.59e-06,0.0,0 STARLINK-4115,1 53032U 22076AY  24057.56230524  .00000159  00000-0  28066-4 0  9996,2 53032  53.2171 175.6618 0001394  92.8627 267.2525 15.08838198 90952,6917.886,95.438,540.715,538.787,0.0
53032.0,STARLINK-4115,PAYLOAD,2024-02-26 18:15:51,15.08847376,0.0001524,53.2177,174.7677,97.9231,262.1934,8.9117e-05,1.131e-05,0.0,0 STARLINK-4115,1 53032U 22076AY  24057.76101695  .00001131  00000-0  89117-4 0  9999,2 53032  53.2177 174.7677 0001524  97.9231 262.1934 15.08847376 91457,6917.858,95.437,540.777,538.669,0.0
53032.0,STARLINK-4115,PAYLOAD,2024-02-27 11:45:07,15.08840126,0.0001699,53.216,171.4945,91.6621,268.4566,-8.7991e-05,-1.688e-05,0.0,0 STARLINK-4115,1 53032U 22076AY  24058.48966824 -.00001688  00000-0 -87991-4 0  9999,2 53032  53.2160 171.4945 0001699  91.6621 268.4566 15.08840126 91566,6917.88,95.438,540.92,538.57,0.0
53032.0,STARLINK-4115,PAYLOAD,2024-02-27 13:20:30,15.08839927,0.0001399,53.2162,171.1972,102.673,257.4419,-8.9372e-05,-1.71e-05,0.0,0 STARLINK-4115,1 53032U 22076AY  24058.55590749 -.00001710  00000-0 -89372-4 0  9997,2 53032  53.2162 171.1972 0001399 102.6730 257.4419 15.08839927 91108,6917.881,95.438,540.713,538.778,0.0
53032.0,STARLINK-4115,PAYLOAD,2024-02-27 14:55:53,15.08840409,0.0001491,53.2174,170.9006,89.9173,270.199,-5.9487e-05,-1.235e-05,0.0,0 STARLINK-4115,1 53032U 22076AY  24058.62214747 -.00001235  00000-0 -59487-4 0  9992,2 53032  53.2174 170.9006 0001491  89.9173 270.1990 15.08840409 91111,6917.879,95.438,540.776,538.713,0.0
53032.0,STARLINK-4115,PAYLOAD,2024-02-28 13:11:17,15.08840749,0.0001411,53.2169,166.7365,92.4541,267.6612,1.1835e-05,-1e-06,0.0,0 STARLINK-4115,1 53032U 22076AY  24059.54950710 -.00000100  00000-0  11835-4 0  9995,2 53032  53.2169 166.7365 0001411  92.4541 267.6612 15.08840749 91722,6917.878,95.438,540.719,538.767,0.0
53032.0,STARLINK-4115,PAYLOAD,2024-02-28 14:46:40,15.08842939,0.0001411,53.2169,166.4397,89.2275,270.8878,3.8167e-05,3.2e-06,0.0,0 STARLINK-4115,1 53032U 22076AY  24059.61574515  .00000320  00000-0  38167-4 0  9998,2 53032  53.2169 166.4397 0001411  89.2275 270.8878 15.08842939 91264,6917.871,95.437,540.713,538.76,0.0
53032.0,STARLINK-4115,PAYLOAD,2024-02-28 16:22:03,15.08843358,0.0001529,53.217,166.1425,103.1741,256.9422,7.9785e-05,9.82e-06,0.0,0 STARLINK-4115,1 53032U 22076AY  24059.68198341  .00000982  00000-0  79785-4 0  9999,2 53032  53.2170 166.1425 0001529 103.1741 256.9422 15.08843358 91276,6917.87,95.437,540.793,538.677,0.0
53032.0,STARLINK-4115,PAYLOAD,2024-02-29 13:02:04,15.08839137,0.0001509,53.2165,162.2775,95.2355,264.881,0.0001329,1.828e-05,0.0,0 STARLINK-4115,1 53032U 22076AY  24060.54310538  .00001828  00000-0  13290-3 0  9998,2 53032  53.2165 162.2775 0001509  95.2355 264.8810 15.08839137 91409,6917.883,95.438,540.792,538.704,0.0
53032.0,STARLINK-4115,PAYLOAD,2024-03-01 12:52:51,15.08847859,0.0001408,53.2158,157.8172,88.1876,271.9278,4.384e-05,4.1e-06,0.0,0 STARLINK-4115,1 53032U 22076AY  24061.53670316  .00000410  00000-0  43840-4 0  9992,2 53032  53.2158 157.8172 0001408  88.1876 271.9278 15.08847859 91552,6917.856,95.437,540.695,538.747,0.0
53032.0,STARLINK-4115,PAYLOAD,2024-03-02 11:08:15,15.08843682,0.0001473,53.2169,153.6547,94.963,265.1531,3.1735e-05,2.17e-06,0.0,0 STARLINK-4115,1 53032U 22076AY  24062.46406386  .00000217  00000-0  31735-4 0  9994,2 53032  53.2169 153.6547 0001473  94.9630 265.1531 15.08843682 92164,6917.869,95.437,540.753,538.715,0.0
53032.0,STARLINK-4115,PAYLOAD,2024-03-02 12:43:38,15.0884478,0.0001474,53.2174,153.3568,95.5753,264.5408,1.8979e-05,1.4e-07,0.0,0 STARLINK-4115,1 53032U 22076AY  24062.53030343  .00000014  00000-0  18979-4 0  9998,2 53032  53.2174 153.3568 0001474  95.5753 264.5408 15.08844780 91709,6917.866,95.437,540.75,538.711,0.0
53032.0,STARLINK-4115,PAYLOAD,2024-03-03 10:59:02,15.08840136,0.0001377,53.217,149.1929,103.563,256.5515,-2.3225e-05,-6.58e-06,0.0,0 STARLINK-4115,1 53032U 22076AY  24063.45766747 -.00000658  00000-0 -23225-4 0  9990,2 53032  53.2170 149.1929 0001377 103.5630 256.5515 15.08840136 92314,6917.88,95.438,540.698,538.792,0.0
53032.0,STARLINK-4115,PAYLOAD,2024-03-03 12:34:25,15.08839763,0.0001403,53.218,148.8972,106.2074,253.9073,-1.3912e-05,-5.09e-06,0.0,0 STARLINK-4115,1 53032U 22076AY  24063.52390708 -.00000509  00000-0 -13912-4 0  9995,2 53032  53.2180 148.8972 0001403 106.2074 253.9073 15.08839763 91853,6917.881,95.438,540.717,538.776,0.0
53032.0,STARLINK-4115,PAYLOAD,2024-03-04 12:25:11,15.08852483,0.0001638,53.2185,144.4393,110.6568,249.4599,0.00016154,2.285e-05,0.0,0 STARLINK-4115,1 53032U 22076AY  24064.51749258  .00002285  00000-0  16154-3 0  9994,2 53032  53.2185 144.4393 0001638 110.6568 249.4599 15.08852483 92470,6917.842,95.437,540.84,538.574,0.0
53032.0,STARLINK-4115,PAYLOAD,2024-03-05 13:51:24,15.08821842,0.0001456,53.2179,139.6803,97.6899,262.4258,-6.9827e-05,-1.398e-05,0.0,0 STARLINK-4115,1 53032U 22076AY  24065.57736831 -.00001398  00000-0 -69827-4 0  9996,2 53032  53.2179 139.6803 0001456  97.6899 262.4258 15.08821842 92162,6917.936,95.439,540.808,538.794,0.0
53032.0,STARLINK-4115,PAYLOAD,2024-03-06 12:06:46,15.08851416,0.0001363,53.2164,135.5169,93.3726,266.7422,5.1966e-05,5.39e-06,0.0,0 STARLINK-4115,1 53032U 22076AY  24066.50470969  .00000539  00000-0  51966-4 0  9996,2 53032  53.2164 135.5169 0001363  93.3726 266.7422 15.08851416 92772,6917.845,95.437,540.653,538.768,0.0
53032.0,STARLINK-4115,PAYLOAD,2024-03-06 13:42:09,15.08853244,0.0001421,53.2166,135.2193,95.7127,264.4027,7.325e-05,8.78e-06,0.0,0 STARLINK-4115,1 53032U 22076AY  24066.57094810  .00000878  00000-0  73250-4 0  9996,2 53032  53.2166 135.2193 0001421  95.7127 264.4027 15.08853244 92311,6917.84,95.437,540.688,538.722,0.0
53032.0,STARLINK-4115,PAYLOAD,2024-03-07 04:00:38,15.08835055,0.0001433,53.2164,132.5422,101.6138,258.5015,0.00024005,3.534e-05,0.0,0 STARLINK-4115,1 53032U 22076AY  24067.16711703  .00003534  00000-0  24005-3 0  9994,2 53032  53.2164 132.5422 0001433 101.6138 258.5015 15.08835055 92878,6917.896,95.438,540.752,538.769,0.0
53032.0,STARLINK-4115,PAYLOAD,2024-03-07 11:57:34,15.08838899,0.0001402,53.2163,131.0545,101.7124,258.4026,0.00025169,3.72e-05,0.0,0 STARLINK-4115,1 53032U 22076AY  24067.49831499  .00003720  00000-0  25169-3 0  9994,2 53032  53.2163 131.0545 0001402 101.7124 258.4026 15.08838899 92453,6917.884,95.438,540.719,538.779,0.0
53032.0,STARLINK-4115,PAYLOAD,2024-03-08 10:12:58,15.08846153,0.0001429,53.2176,126.889,95.6805,264.435,1.0567e-05,-1.2e-06,0.0,0 STARLINK-4115,1 53032U 22076AY  24068.42567711 -.00000120  00000-0  10567-4 0  9990,2 53032  53.2176 126.8890 0001429  95.6805 264.4350 15.08846153 93065,6917.862,95.437,540.715,538.738,0.0
53032.0,STARLINK-4115,PAYLOAD,2024-03-09 03:42:13,15.08825912,8.6e-05,53.2165,123.618,107.794,252.3146,0.00024332,3.585e-05,0.0,0 STARLINK-4115,1 53032U 22076AY  24069.15432004  .00003585  00000-0  24332-3 0  9998,2 53032  53.2165 123.6180 0000860 107.7940 252.3146 15.08825912 93174,6917.923,95.438,540.383,539.194,0.0
53032.0,STARLINK-4115,PAYLOAD,2024-03-09 10:03:45,15.08840907,0.0001247,53.2175,122.4298,98.0138,262.0995,0.00013741,1.9e-05,0.0,0 STARLINK-4115,1 53032U 22076AY  24069.41927466  .00001900  00000-0  13741-3 0  9999,2 53032  53.2175 122.4298 0001247  98.0138 262.0995 15.08840907 93219,6917.878,95.437,540.605,538.88,0.0
